     2.11           N: GPS NAV DATA                         RINEX VERSION / TYPE
teqc  2019Feb25                         20211005 14:52:27UTCPGM / RUN BY / DATE
OSX ker:10.11.6|Core i5|gcc 4.3 -m64|OSX ker:10.10+|=+      COMMENT
    1.2107D-08  1.4901D-08 -5.9605D-08 -1.1921D-07          ION ALPHA
    9.6256D+04  8.1920D+04 -1.9661D+05 -3.9322D+05          ION BETA
   -9.313225746155D-10 1.065814103640D-14   147456     2175 DELTA-UTC: A0,A1,T,W
                                                            END OF HEADER
17 21  9 12 10  0  0.0 5.035181529820D-04 5.570655048359D-12 0.000000000000D+00
    1.010000000000D+02-4.593750000000D+01 4.199817796412D-09 2.936331403475D+00
   -2.311542630196D-06 1.352339750156D-02 4.321336746216D-06 5.153665840149D+03
    3.600000000000D+04 3.054738044739D-07-1.522339397832D-01-1.192092895508D-07
    9.815300732388D-01 3.036250000000D+02-1.557507641245D+00-7.933901907432D-09
   -2.010798043524D-10 1.000000000000D+00 2.175000000000D+03 0.000000000000D+00
    4.000000000000D+00 0.000000000000D+00-1.117587089539D-08 1.010000000000D+02
    2.881800000000D+04 4.000000000000D+00
21 21  9 12 10  0  0.0 1.423046924174D-04 1.932676241267D-12 0.000000000000D+00
    7.600000000000D+01-7.753125000000D+01 4.441256424728D-09 3.027769023602D+00
   -3.771856427193D-06 2.406528207939D-02 8.361414074898D-06 5.153648588181D+03
    3.600000000000D+04 2.905726432800D-07 7.578334966813D-01 3.706663846970D-07
    9.581906928313D-01 2.103437500000D+02-1.085936804461D+00-7.727107579332D-09
   -4.643050544549D-12 1.000000000000D+00 2.175000000000D+03 0.000000000000D+00
    2.000000000000D+00 0.000000000000D+00-1.024454832077D-08 7.600000000000D+01
    2.881800000000D+04 4.000000000000D+00
 1 21  9 12 10  0  0.0 5.699619650841D-04-1.114131009672D-11 0.000000000000D+00
    7.800000000000D+01-6.531250000000D+01 4.026239137592D-09 6.569013363374D-01
   -3.257766366005D-06 1.106216467451D-02 8.793547749519D-06 5.153677417755D+03
    3.600000000000D+04-8.009374141693D-08 8.444803117204D-01 9.313225746155D-08
    9.854198597668D-01 2.242187500000D+02 8.888125080486D-01-7.941045062116D-09
   -5.893102614235D-11 1.000000000000D+00 2.175000000000D+03 0.000000000000D+00
    2.000000000000D+00 0.000000000000D+00 5.122274160385D-09 7.800000000000D+01
    2.881800000000D+04 4.000000000000D+00
13 21  9 12 10  0  0.0 1.843804493546D-04 5.343281372916D-12 0.000000000000D+00
    1.030000000000D+02-2.518750000000D+01 4.384111187257D-09 2.347835348492D+00
   -1.372769474983D-06 5.419823923148D-03 8.061528205872D-06 5.153680669785D+03
    3.600000000000D+04 0.000000000000D+00 3.060894733478D+00-7.636845111847D-08
    9.686857739250D-01 2.283750000000D+02 9.637721334579D-01-7.903186342291D-09
   -2.821546100149D-10 1.000000000000D+00 2.175000000000D+03 0.000000000000D+00
    2.000000000000D+00 0.000000000000D+00-1.117587089539D-08 1.030000000000D+02
    2.881800000000D+04 4.000000000000D+00
 3 21  9 12 10  0  0.0-2.866522409022D-04-1.318767317571D-11 0.000000000000D+00
    9.000000000000D+01-9.125000000000D+00 4.488401245642D-09-4.559520153173D-01
   -5.066394805908D-07 3.859234508127D-03 7.798895239830D-06 5.153770711899D+03
    3.600000000000D+04 2.048909664154D-08 1.881340302015D+00 2.607703208923D-08
    9.703619254806D-01 2.330625000000D+02 9.772607165229D-01-8.032834599804D-09
    2.621537768999D-10 1.000000000000D+00 2.175000000000D+03 0.000000000000D+00
    2.800000000000D+00 0.000000000000D+00 1.862645149231D-09 9.000000000000D+01
    2.983800000000D+04 4.000000000000D+00
 6 21  9 12 10  0  0.0 7.296260446310D-05 7.275957614183D-12 0.000000000000D+00
    9.300000000000D+01-5.887500000000D+01 3.846588797292D-09 9.824164070267D-01
   -3.186985850334D-06 2.164644771256D-03 9.374693036079D-06 5.153578939438D+03
    3.600000000000D+04 0.000000000000D+00 8.362271028439D-01-4.470348358154D-08
    9.848504818100D-01 2.118750000000D+02-1.006997908751D+00-7.738179469092D-09
    1.535778257043D-11 1.000000000000D+00 2.175000000000D+03 0.000000000000D+00
    2.000000000000D+00 0.000000000000D+00 3.725290298462D-09 9.300000000000D+01
    3.253200000000D+04 4.000000000000D+00
24 21  9 12 10  0  0.0 2.327575348318D-04 8.640199666843D-12 0.000000000000D+00
    2.100000000000D+01 4.456250000000D+01 4.969849871339D-09 1.026893111866D+00
    2.298504114151D-06 1.153055089526D-02 1.047924160957D-05 5.153716619492D+03
    3.600000000000D+04-8.009374141693D-08-2.380792873991D+00 9.499490261078D-08
    9.349068184616D-01 1.650625000000D+02 7.548256405577D-01-8.318203629427D-09
   -3.321566928024D-10 1.000000000000D+00 2.175000000000D+03 0.000000000000D+00
    2.000000000000D+00 0.000000000000D+00 2.793967723846D-09 2.100000000000D+01
    3.340200000000D+04 4.000000000000D+00
24 21  9 12 12  0  0.0 2.328199334443D-04 8.640199666843D-12 0.000000000000D+00
    2.500000000000D+01 3.415625000000D+01 4.844130348901D-09 2.076922922691D+00
    1.672655344009D-06 1.153055496980D-02 1.047179102898D-05 5.153719381332D+03
    4.320000000000D+04-1.825392246246D-07-2.380853141827D+00-1.266598701477D-07
    9.349054023569D-01 1.645625000000D+02 7.549530226866D-01-8.141053393266D-09
   -2.139374827835D-10 1.000000000000D+00 2.175000000000D+03 0.000000000000D+00
    2.000000000000D+00 0.000000000000D+00 2.793967723846D-09 2.500000000000D+01
    3.601800000000D+04 4.000000000000D+00
19 21  9 12 12  0  0.0 5.195336416364D-05 5.002220859751D-12 0.000000000000D+00
    5.700000000000D+01-4.271875000000D+01 4.320894268304D-09 7.686965806695D-02
   -2.261251211166D-06 9.136998560280D-03 4.390254616737D-06 5.153650682449D+03
    4.320000000000D+04-4.656612873077D-08-1.072805884386D-01-8.195638656616D-08
    9.801627817256D-01 3.064062500000D+02 1.938745134300D+00-8.285345117881D-09
   -9.250385315679D-11 1.000000000000D+00 2.175000000000D+03 0.000000000000D+00
    2.000000000000D+00 0.000000000000D+00-1.536682248116D-08 5.700000000000D+01
    3.601800000000D+04 4.000000000000D+00
30 21  9 12 12  0  0.0-4.720878787339D-04-3.865352482535D-12 0.000000000000D+00
    4.300000000000D+01 3.531250000000D+01 4.838415825154D-09 9.791954944399D-01
    1.994892954826D-06 5.355970119126D-03 1.053512096405D-05 5.153651456833D+03
    4.320000000000D+04-1.769512891769D-07-2.285231308280D+00 1.415610313416D-07
    9.365993034976D-01 1.640937500000D+02-2.730586552142D+00-8.119266771480D-09
   -2.642967233051D-10 1.000000000000D+00 2.175000000000D+03 0.000000000000D+00
    2.000000000000D+00 0.000000000000D+00 3.725290298462D-09 4.300000000000D+01
    3.601800000000D+04 4.000000000000D+00
 6 21  9 12 12  0  0.0 7.301475852728D-05 7.275957614183D-12 0.000000000000D+00
    9.400000000000D+01-6.681250000000D+01 3.925163498815D-09 2.032911879305D+00
   -3.388151526451D-06 2.165204146877D-03 8.972361683846D-06 5.153577938080D+03
    4.320000000000D+04 3.352761268616D-08 8.361713393326D-01-5.401670932770D-08
    9.848505915288D-01 2.173437500000D+02-1.007259553112D+00-7.744965466042D-09
    2.678683006471D-11 1.000000000000D+00 2.175000000000D+03 0.000000000000D+00
    2.000000000000D+00 0.000000000000D+00 3.725290298462D-09 9.400000000000D+01
    3.601800000000D+04 4.000000000000D+00
22 21  9 12 12  0  0.0-5.150991491973D-04 9.322320693173D-12 0.000000000000D+00
    9.000000000000D+00-1.440625000000D+01 5.181644407717D-09 2.845943985905D+00
   -6.929039955139D-07 6.752587039955D-03 8.240342140198D-06 5.153737070084D+03
    4.320000000000D+04 1.098960638046D-07 1.777982026625D+00 1.918524503708D-07
    9.360652959740D-01 2.046562500000D+02-8.979845187168D-01-8.252843764069D-09
    3.493002640438D-10 1.000000000000D+00 2.175000000000D+03 0.000000000000D+00
    2.000000000000D+00 0.000000000000D+00-1.769512891769D-08 9.000000000000D+00
    3.601800000000D+04 4.000000000000D+00
14 21  9 12 12  0  0.0 3.035180270672D-06-8.185452315956D-12 0.000000000000D+00
    3.500000000000D+01 8.346875000000D+01 4.719482299667D-09 3.210827024748D-01
    4.414469003677D-06 1.071818871424D-03 5.898997187614D-06 5.153645931244D+03
    4.320000000000D+04 5.587935447693D-09-1.217692726270D+00-1.862645149231D-09
    9.554381554114D-01 2.625312500000D+02 3.109234016031D+00-8.293559745767D-09
    1.942938074027D-10 1.000000000000D+00 2.175000000000D+03 0.000000000000D+00
    2.000000000000D+00 0.000000000000D+00-7.916241884232D-09 3.500000000000D+01
    3.601800000000D+04 4.000000000000D+00
17 21  9 12 12  0  0.0 5.035586655140D-04 5.570655048359D-12 0.000000000000D+00
    1.020000000000D+02-3.390625000000D+01 4.215532736716D-09-2.296732678055D+00
   -1.572072505951D-06 1.352567842696D-02 3.585591912270D-06 5.153661321640D+03
    4.320000000000D+04 1.862645149231D-07-1.522918610987D-01 1.266598701477D-07
    9.815296168083D-01 3.165937500000D+02-1.557443593229D+00-7.895328872139D-09
   -1.214336296267D-11 1.000000000000D+00 2.175000000000D+03 0.000000000000D+00
    4.000000000000D+00 0.000000000000D+00-1.117587089539D-08 1.020000000000D+02
    3.601800000000D+04 4.000000000000D+00
 3 21  9 12 12  0  0.0-2.867472358048D-04-1.318767317571D-11 0.000000000000D+00
    9.600000000000D+01-1.362500000000D+01 4.518759653049D-09 5.940859732197D-01
   -6.668269634247D-07 3.858897485770D-03 7.990747690201D-06 5.153770114899D+03
    4.320000000000D+04 4.097819328308D-08 1.881282354367D+00 5.215406417847D-08
    9.703638331257D-01 2.296875000000D+02 9.773449147730D-01-8.038906281285D-09
    2.828689254833D-10 1.000000000000D+00 2.175000000000D+03 0.000000000000D+00
    4.000000000000D+00 0.000000000000D+00 1.862645149231D-09 9.600000000000D+01
    3.601800000000D+04 4.000000000000D+00
